[{"id":"59598","name":"GSAT0225 (GALILEO 29)","tle1":"1 59598U 24079A   26175.75913958 -.00000038  00000+0  00000+0 0  9996","tle2":"2 59598  55.1240 100.8683 0001742 297.9493 254.8080  1.70474128 13441"},{"id":"59600","name":"GSAT0227 (GALILEO 30)","tle1":"1 59600U 24079C   26174.45530327 -.00000033  00000+0  00000+0 0  9996","tle2":"2 59600  55.1185 100.9033 0002419  58.0764 301.9236  1.70473918 13478"},{"id":"61182","name":"GSAT0232 (GALILEO 32)","tle1":"1 61182U 24167A   26174.68416168  .00000046  00000+0  00000+0 0  9996","tle2":"2 61182  55.1833 221.1353 0006244 229.3467 126.7036  1.70474403 10984"},{"id":"61183","name":"GSAT0226 (GALILEO 31)","tle1":"1 61183U 24167B   26175.16363493  .00000050  00000+0  00000+0 0  9998","tle2":"2 61183  55.1820 221.1292 0002945 231.0291 150.6225  1.70474440 10978"},{"id":"61186","name":"BEIDOU-3 M25","tle1":"1 61186U 24168B   26174.99111059 -.00000109  00000+0  00000+0 0  9997","tle2":"2 61186  54.4667 302.0055 0003080 299.6481 120.0107  1.86230274 11917"},{"id":"61187","name":"BEIDOU-3 M27","tle1":"1 61187U 24168C   26174.69963936 -.00000109  00000+0  00000+0 0  9994","tle2":"2 61187  54.4622 301.9985 0001470  49.4418 309.8302  1.86230327  9371"},{"id":"62339","name":"NAVSTAR 83 (USA 440)","tle1":"1 62339U 24242A   26176.06978753 -.00000106  00000+0  00000+0 0  9990","tle2":"2 62339  54.8458 333.8613 0017672   4.5649 176.3126  2.00571971 11412"},{"id":"62876","name":"QZS-6 (MICHIBIKI-6)","tle1":"1 62876U 25023A   26176.16919925 -.00000224  00000+0  00000+0 0  9992","tle2":"2 62876   0.0581 280.0946 0001967 187.0933 317.5365  1.00273180  5027"},{"id":"63130","name":"COSMOS 2584 [GLONASS-K2]","tle1":"1 63130U 25042A   26174.24058150 -.00000067  00000+0  00000+0 0  9993","tle2":"2 63130  65.0880  72.5961 0006598 228.8314 131.1446  2.13103825 10172"},{"id":"64202","name":"NAVSTAR 84 (USA 545)","tle1":"1 64202U 25116A   26175.81394639 -.00000094  00000+0  00000+0 0  9995","tle2":"2 64202  55.2402  30.8229 0008309 339.1386 199.9471  2.00575590  8024"},{"id":"65590","name":"COSMOS 2596 [GLONASS-K1]","tle1":"1 65590U 25206B   26175.96646456 -.00000086  00000+0  00000+0 0  9990","tle2":"2 65590  64.6296 314.7142 0011009 310.6805  49.5796  2.13100978  6081"},{"id":"67160","name":"GSAT0233 (GALILEO 33)","tle1":"1 67160U 25302A   26170.57978300 -.00000013  00000+0  00000+0 0  9990","tle2":"2 67160  54.3370 102.0625 0000767 220.2514 324.6772  1.70473973  3168"},{"id":"67162","name":"GSAT0234 (GALILEO 34)","tle1":"1 67162U 25302C   26171.44712830 -.00000015  00000+0  00000+0 0  9995","tle2":"2 67162  54.3393 102.0369 0002889 311.1148 226.2302  1.70474042  3232"},{"id":"67588","name":"NAVSTAR 85 (USA 581)","tle1":"1 67588U 26017A   26175.67571304 -.00000066  00000+0  00000+0 0  9995","tle2":"2 67588  55.0929  88.4546 0021855 258.9107 100.8448  2.00571052431762"},{"id":"68791","name":"NAVSTAR 86 (USA 585)","tle1":"1 68791U 26087A   26173.65141046  .00000058  00000+0  00000+0 0  9991","tle2":"2 68791  54.9627 207.5713 0020681 106.6591  76.9843  2.00570839   940"}]